TIANMU-1 13             
1 58647U 23205C   25333.87617428  .00006882  00000+0  28449-3 0  9994
2 58647  97.3639 353.7328 0006702 324.0559  36.0227 15.24277415107111
TIANMU-1 14             
1 58648U 23205D   25333.85943745  .00006698  00000+0  27707-3 0  9998
2 58648  97.3572 353.0771 0007611 327.8211  32.2561 15.24262500107117
TIANMU-1 19             
1 58660U 23208A   25333.84073133  .00009552  00000+0  35772-3 0  9992
2 58660  97.4384  84.9069 0004231 310.5869  49.5001 15.27489962106852
TIANMU-1 20             
1 58661U 23208B   25333.83727793  .00009022  00000+0  32594-3 0  9991
2 58661  97.4321  85.3385 0006649 319.1229  40.9511 15.28682185106922
TIANMU-1 21             
1 58662U 23208C   25333.85729755  .00011203  00000+0  37475-3 0  9991
2 58662  97.4370  87.2098 0006123 313.5344  46.5388 15.31132576107026
TIANMU-1 22             
1 58663U 23208D   25333.83855326  .00008653  00000+0  32655-3 0  9994
2 58663  97.4378  84.9694 0003331 345.3098  14.8044 15.27268429106868
TIANMU-1 15             
1 58700U 24004A   25333.85618005  .00007204  00000+0  29656-3 0  9992
2 58700  97.4635 155.3730 0006061 348.9531  11.1572 15.24415366105387
TIANMU-1 16             
1 58701U 24004B   25332.72308521  .00001245  00000+0  54124-4 0  9995
2 58701  97.4570 153.6495 0005468 351.9748   8.1401 15.24146454105217
