{
  "type": "FeatureCollection",
  "features": [
    {
      "type": "Feature",
      "properties": {
        "OBJECT_NAME": "TIANMU-1 13",
        "OBJECT_ID": "2023-205C",
        "EPOCH": "2025-11-29T21:01:41.457792",
        "MEAN_MOTION": 15.24277415,
        "ECCENTRICITY": 0.0006702,
        "INCLINATION": 97.3639,
        "RA_OF_ASC_NODE": 353.7328,
        "ARG_OF_PERICENTER": 324.0559,
        "MEAN_ANOMALY": 36.0227,
        "EPHEMERIS_TYPE": 0,
        "CLASSIFICATION_TYPE": "U",
        "NORAD_CAT_ID": 58647,
        "ELEMENT_SET_NO": 999,
        "REV_AT_EPOCH": 10711,
        "BSTAR": 0.00028449,
        "MEAN_MOTION_DOT": 6.882e-05,
        "MEAN_MOTION_DDOT": 0,
        "norad_id": 58647,
        "name": "TIANMU-1 13",
        "group": "weather",
        "longitude_deg": NaN,
        "latitude_deg": NaN,
        "alt_km": NaN,
        "orbit_class": "HEO",
        "timestamp": "2025-11-30T07:29:52.854443+00:00"
      },
      "geometry": {
        "type": "Point",
        "coordinates": [
          NaN,
          NaN
        ]
      }
    },
    {
      "type": "Feature",
      "properties": {
        "OBJECT_NAME": "TIANMU-1 14",
        "OBJECT_ID": "2023-205D",
        "EPOCH": "2025-11-29T20:37:35.395680",
        "MEAN_MOTION": 15.242625,
        "ECCENTRICITY": 0.0007611,
        "INCLINATION": 97.3572,
        "RA_OF_ASC_NODE": 353.0771,
        "ARG_OF_PERICENTER": 327.8211,
        "MEAN_ANOMALY": 32.2561,
        "EPHEMERIS_TYPE": 0,
        "CLASSIFICATION_TYPE": "U",
        "NORAD_CAT_ID": 58648,
        "ELEMENT_SET_NO": 999,
        "REV_AT_EPOCH": 10711,
        "BSTAR": 0.00027707,
        "MEAN_MOTION_DOT": 6.698e-05,
        "MEAN_MOTION_DDOT": 0,
        "norad_id": 58648,
        "name": "TIANMU-1 14",
        "group": "weather",
        "longitude_deg": NaN,
        "latitude_deg": NaN,
        "alt_km": NaN,
        "orbit_class": "HEO",
        "timestamp": "2025-11-30T07:29:52.854449+00:00"
      },
      "geometry": {
        "type": "Point",
        "coordinates": [
          NaN,
          NaN
        ]
      }
    },
    {
      "type": "Feature",
      "properties": {
        "OBJECT_NAME": "TIANMU-1 19",
        "OBJECT_ID": "2023-208A",
        "EPOCH": "2025-11-29T20:10:39.186912",
        "MEAN_MOTION": 15.27489962,
        "ECCENTRICITY": 0.0004231,
        "INCLINATION": 97.4384,
        "RA_OF_ASC_NODE": 84.9069,
        "ARG_OF_PERICENTER": 310.5869,
        "MEAN_ANOMALY": 49.5001,
        "EPHEMERIS_TYPE": 0,
        "CLASSIFICATION_TYPE": "U",
        "NORAD_CAT_ID": 58660,
        "ELEMENT_SET_NO": 999,
        "REV_AT_EPOCH": 10685,
        "BSTAR": 0.00035772,
        "MEAN_MOTION_DOT": 9.552e-05,
        "MEAN_MOTION_DDOT": 0,
        "norad_id": 58660,
        "name": "TIANMU-1 19",
        "group": "weather",
        "longitude_deg": NaN,
        "latitude_deg": NaN,
        "alt_km": NaN,
        "orbit_class": "HEO",
        "timestamp": "2025-11-30T07:29:52.854486+00:00"
      },
      "geometry": {
        "type": "Point",
        "coordinates": [
          NaN,
          NaN
        ]
      }
    },
    {
      "type": "Feature",
      "properties": {
        "OBJECT_NAME": "TIANMU-1 20",
        "OBJECT_ID": "2023-208B",
        "EPOCH": "2025-11-29T20:05:40.813152",
        "MEAN_MOTION": 15.28682185,
        "ECCENTRICITY": 0.0006649,
        "INCLINATION": 97.4321,
        "RA_OF_ASC_NODE": 85.3385,
        "ARG_OF_PERICENTER": 319.1229,
        "MEAN_ANOMALY": 40.9511,
        "EPHEMERIS_TYPE": 0,
        "CLASSIFICATION_TYPE": "U",
        "NORAD_CAT_ID": 58661,
        "ELEMENT_SET_NO": 999,
        "REV_AT_EPOCH": 10692,
        "BSTAR": 0.00032594,
        "MEAN_MOTION_DOT": 9.022e-05,
        "MEAN_MOTION_DDOT": 0,
        "norad_id": 58661,
        "name": "TIANMU-1 20",
        "group": "weather",
        "longitude_deg": NaN,
        "latitude_deg": NaN,
        "alt_km": NaN,
        "orbit_class": "HEO",
        "timestamp": "2025-11-30T07:29:52.854493+00:00"
      },
      "geometry": {
        "type": "Point",
        "coordinates": [
          NaN,
          NaN
        ]
      }
    },
    {
      "type": "Feature",
      "properties": {
        "OBJECT_NAME": "TIANMU-1 21",
        "OBJECT_ID": "2023-208C",
        "EPOCH": "2025-11-29T20:34:30.508320",
        "MEAN_MOTION": 15.31132576,
        "ECCENTRICITY": 0.0006123,
        "INCLINATION": 97.437,
        "RA_OF_ASC_NODE": 87.2098,
        "ARG_OF_PERICENTER": 313.5344,
        "MEAN_ANOMALY": 46.5388,
        "EPHEMERIS_TYPE": 0,
        "CLASSIFICATION_TYPE": "U",
        "NORAD_CAT_ID": 58662,
        "ELEMENT_SET_NO": 999,
        "REV_AT_EPOCH": 10702,
        "BSTAR": 0.00037475,
        "MEAN_MOTION_DOT": 0.00011203,
        "MEAN_MOTION_DDOT": 0,
        "norad_id": 58662,
        "name": "TIANMU-1 21",
        "group": "weather",
        "longitude_deg": NaN,
        "latitude_deg": NaN,
        "alt_km": NaN,
        "orbit_class": "HEO",
        "timestamp": "2025-11-30T07:29:52.854500+00:00"
      },
      "geometry": {
        "type": "Point",
        "coordinates": [
          NaN,
          NaN
        ]
      }
    },
    {
      "type": "Feature",
      "properties": {
        "OBJECT_NAME": "TIANMU-1 22",
        "OBJECT_ID": "2023-208D",
        "EPOCH": "2025-11-29T20:07:31.001664",
        "MEAN_MOTION": 15.27268429,
        "ECCENTRICITY": 0.0003331,
        "INCLINATION": 97.4378,
        "RA_OF_ASC_NODE": 84.9694,
        "ARG_OF_PERICENTER": 345.3098,
        "MEAN_ANOMALY": 14.8044,
        "EPHEMERIS_TYPE": 0,
        "CLASSIFICATION_TYPE": "U",
        "NORAD_CAT_ID": 58663,
        "ELEMENT_SET_NO": 999,
        "REV_AT_EPOCH": 10686,
        "BSTAR": 0.00032655,
        "MEAN_MOTION_DOT": 8.653e-05,
        "MEAN_MOTION_DDOT": 0,
        "norad_id": 58663,
        "name": "TIANMU-1 22",
        "group": "weather",
        "longitude_deg": NaN,
        "latitude_deg": NaN,
        "alt_km": NaN,
        "orbit_class": "HEO",
        "timestamp": "2025-11-30T07:29:52.854508+00:00"
      },
      "geometry": {
        "type": "Point",
        "coordinates": [
          NaN,
          NaN
        ]
      }
    },
    {
      "type": "Feature",
      "properties": {
        "OBJECT_NAME": "TIANMU-1 15",
        "OBJECT_ID": "2024-004A",
        "EPOCH": "2025-11-29T20:32:53.956320",
        "MEAN_MOTION": 15.24415366,
        "ECCENTRICITY": 0.0006061,
        "INCLINATION": 97.4635,
        "RA_OF_ASC_NODE": 155.373,
        "ARG_OF_PERICENTER": 348.9531,
        "MEAN_ANOMALY": 11.1572,
        "EPHEMERIS_TYPE": 0,
        "CLASSIFICATION_TYPE": "U",
        "NORAD_CAT_ID": 58700,
        "ELEMENT_SET_NO": 999,
        "REV_AT_EPOCH": 10538,
        "BSTAR": 0.00029656,
        "MEAN_MOTION_DOT": 7.204e-05,
        "MEAN_MOTION_DDOT": 0,
        "norad_id": 58700,
        "name": "TIANMU-1 15",
        "group": "weather",
        "longitude_deg": NaN,
        "latitude_deg": NaN,
        "alt_km": NaN,
        "orbit_class": "HEO",
        "timestamp": "2025-11-30T07:29:52.854682+00:00"
      },
      "geometry": {
        "type": "Point",
        "coordinates": [
          NaN,
          NaN
        ]
      }
    },
    {
      "type": "Feature",
      "properties": {
        "OBJECT_NAME": "TIANMU-1 16",
        "OBJECT_ID": "2024-004B",
        "EPOCH": "2025-11-28T17:21:14.562144",
        "MEAN_MOTION": 15.24146454,
        "ECCENTRICITY": 0.00054689,
        "INCLINATION": 97.457,
        "RA_OF_ASC_NODE": 153.6495,
        "ARG_OF_PERICENTER": 351.9748,
        "MEAN_ANOMALY": 8.1401,
        "EPHEMERIS_TYPE": 0,
        "CLASSIFICATION_TYPE": "U",
        "NORAD_CAT_ID": 58701,
        "ELEMENT_SET_NO": 999,
        "REV_AT_EPOCH": 10521,
        "BSTAR": 5.4123761e-05,
        "MEAN_MOTION_DOT": 1.245e-05,
        "MEAN_MOTION_DDOT": 0,
        "norad_id": 58701,
        "name": "TIANMU-1 16",
        "group": "weather",
        "longitude_deg": NaN,
        "latitude_deg": NaN,
        "alt_km": NaN,
        "orbit_class": "HEO",
        "timestamp": "2025-11-30T07:29:52.854688+00:00"
      },
      "geometry": {
        "type": "Point",
        "coordinates": [
          NaN,
          NaN
        ]
      }
    }
  ]
}